OBJECT_NAME,OBJECT_ID,EPOCH,MEAN_MOTION,ECCENTRICITY,INCLINATION,RA_OF_ASC_NODE,ARG_OF_PERICENTER,MEAN_ANOMALY,EPHEMERIS_TYPE,CLASSIFICATION_TYPE,NORAD_CAT_ID,ELEMENT_SET_NO,REV_AT_EPOCH,BSTAR,MEAN_MOTION_DOT,MEAN_MOTION_DDOT
COSMO-SKYMED 1,2007-023A,2026-06-07T20:16:05.574144,14.97059733,.0001198,97.8859,350.6228,80.1237,280.0120,0,U,31598,999,2839,.2291E-3,.258E-4,0
COSMOS 2428,2007-029A,2026-06-07T17:28:04.430784,14.12930226,.0007278,70.9375,14.3397,153.2522,206.8976,0,U,31792,999,97681,-.68542E-4,-.176E-5,0
SL-16 R/B,2007-029B,2026-06-07T18:46:30.993888,14.14849750,.0002242,70.9759,342.9997,258.5129,189.1594,0,U,31793,999,97811,.1834E-3,.306E-5,0
KORONAS-FOTON,2009-003A,2026-06-07T18:08:22.130016,15.45526698,.0010649,82.4293,182.0965,179.0176,181.1096,0,U,33504,999,95964,.22732E-3,.1097E-3,0
CZ-2C R/B,2011-030B,2026-06-07T18:54:10.044000,14.81449127,.0053662,97.8651,114.3440,57.9644,2.8222,0,U,37731,999,80343,.18734E-3,.1449E-4,0
H-2A R/B,2012-025E,2026-06-07T15:46:27.720192,14.95664133,.0044349,98.4815,133.0176,19.9518,340.3422,0,U,38341,999,76166,.31778E-3,.3534E-4,0
SHIJIAN-16 (SJ-16),2013-057A,2026-06-07T20:31:58.056384,14.92590983,.0016962,74.9734,14.3577,252.4246,107.5090,0,U,39358,999,68495,.8262E-4,.823E-5,0
SL-4 R/B,2014-021B,2026-06-07T12:52:03.271872,15.41748602,.0091623,51.6060,258.0468,70.8573,290.2304,0,U,39679,999,67012,.24888E-3,.11995E-3,0
ALOS-2,2014-029A,2026-06-07T19:20:23.884800,14.79469663,.0001665,97.9210,256.1040,89.7532,270.3870,0,U,39766,999,65019,.17728E-3,.1273E-4,0
YAOGAN-29,2015-069A,2026-06-07T20:48:45.558144,14.83077158,.0002962,98.0032,187.4854,68.5704,291.5825,0,U,41038,999,56924,.24712E-4,.147E-5,0
ASTRO-H (HITOMI),2016-012A,2026-06-07T15:37:03.465120,15.10470624,.0009576,30.9976,135.7750,158.3630,201.7414,0,U,41337,999,56584,.16116E-3,.2816E-4,0
HXMT (HUIYAN),2017-034A,2026-06-07T15:53:19.743648,15.18409983,.0030166,43.0130,236.0784,84.2409,276.1878,0,U,42758,999,49621,.27031E-3,.5487E-4,0
SAOCOM 1A,2018-076A,2026-06-07T19:40:10.999200,14.82169382,.0001527,97.8886,345.7043,79.9256,280.2130,0,U,43641,999,41471,.10736E-3,.803E-5,0
H-2A R/B,2018-084L,2026-06-07T14:34:52.948128,15.44785924,.0024291,98.8590,35.4069,72.4205,287.9690,0,U,43682,999,41964,.44816E-3,.21123E-3,0
SAOCOM 1B,2020-059A,2026-06-07T20:25:12.910368,14.82162556,.000148,97.8890,344.8296,76.5240,283.6138,0,U,46265,999,31210,.13782E-4,.58E-6,0
CSS (TIANHE),2021-035A,2026-06-07T19:49:15.635424,15.60412503,.0008815,41.4695,18.9562,3.9796,356.1111,0,U,48274,999,29170,.26156E-3,.2186E-3,0
COSMOS 2550,2021-056A,2026-06-07T19:54:52.344864,15.33744130,.0008703,67.1417,128.2113,266.2815,93.7344,0,U,48865,999,27728,.20076E-3,.6402E-4,0
CZ-2C R/B,2022-058K,2026-06-07T10:50:06.016992,15.61206771,.0033049,50.1841,214.1517,227.1063,132.7134,0,U,52794,999,22412,.41128E-3,.36142E-3,0
CZ-2C R/B,2022-132E,2026-06-07T12:49:02.222400,15.70386541,.0017052,97.2910,165.1354,113.5419,246.7637,0,U,54039,999,20443,.45176E-3,.5568E-3,0
GSLV R/B,2022-138AN,2026-06-07T16:39:23.512032,14.97217006,.0021326,87.3802,136.1727,176.9002,183.2367,0,U,54149,999,19739,.26557E-3,.3113E-4,0
XRISM,2023-137A,2026-06-07T10:09:20.510784,15.12380467,.0007902,31.0024,62.8447,227.1437,132.8538,0,U,57800,999,15138,.29186E-3,.5292E-4,0
ACS3,2024-077B,2026-06-07T17:31:20.951040,13.93858993,.0049843,97.1685,79.6301,68.0697,292.5757,0,U,59588,999,10672,.28456E-1,.38072E-3,0
CZ-8A R/B,2025-231K,2026-06-07T11:30:13.732704,14.30152309,.011648,50.0042,80.6173,189.8219,170.0418,0,U,66004,999,3355,.50635E-4,-.22E-6,0
SZ-21 MODULE,2025-246C,2026-06-06T07:35:07.958112,15.75457395,.00071848,41.4728,14.9847,283.9983,76.0062,0,U,66515,999,3202,.36001641E-3,.56445E-3,0
