COSMO-SKYMED 1          
1 31598U 07023A   26158.84450896  .00002580  00000+0  22910-3 0  9995
2 31598  97.8859 350.6228 0001198  80.1237 280.0120 14.97059733 28393
COSMOS 2428             
1 31792U 07029A   26158.72782906 -.00000176  00000+0 -68542-4 0  9997
2 31792  70.9375  14.3397 0007278 153.2522 206.8976 14.12930226976815
SL-16 R/B               
1 31793U 07029B   26158.78230317  .00000306  00000+0  18340-3 0  9991
2 31793  70.9759 342.9997 0002242 258.5129 189.1594 14.14849750978113
KORONAS-FOTON           
1 33504U 09003A   26158.75581169  .00010970  00000+0  22732-3 0  9996
2 33504  82.4293 182.0965 0010649 179.0176 181.1096 15.45526698959647
CZ-2C R/B               
1 37731U 11030B   26158.78761625  .00001449  00000+0  18734-3 0  9993
2 37731  97.8651 114.3440 0053662  57.9644   2.8222 14.81449127803438
H-2A R/B                
1 38341U 12025E   26158.65726528  .00003534  00000+0  31778-3 0  9995
2 38341  98.4815 133.0176 0044349  19.9518 340.3422 14.95664133761660
SHIJIAN-16 (SJ-16)      
1 39358U 13057A   26158.85553306  .00000823  00000+0  82620-4 0  9995
2 39358  74.9734  14.3577 0016962 252.4246 107.5090 14.92590983684954
SL-4 R/B                
1 39679U 14021B   26158.53614898  .00011995  00000+0  24888-3 0  9995
2 39679  51.6060 258.0468 0091623  70.8573 290.2304 15.41748602670122
ALOS-2                  
1 39766U 14029A   26158.80583200  .00001273  00000+0  17728-3 0  9995
2 39766  97.9210 256.1040 0001665  89.7532 270.3870 14.79469663650194
YAOGAN-29               
1 41038U 15069A   26158.86719396  .00000147  00000+0  24712-4 0  9999
2 41038  98.0032 187.4854 0002962  68.5704 291.5825 14.83077158569248
ASTRO-H (HITOMI)        
1 41337U 16012A   26158.65073455  .00002816  00000+0  16116-3 0  9999
2 41337  30.9976 135.7750 0009576 158.3630 201.7414 15.10470624565842
HXMT (HUIYAN)           
1 42758U 17034A   26158.66203407  .00005487  00000+0  27031-3 0  9990
2 42758  43.0130 236.0784 0030166  84.2409 276.1878 15.18409983496211
SAOCOM 1A               
1 43641U 18076A   26158.81957175  .00000803  00000+0  10736-3 0  9995
2 43641  97.8886 345.7043 0001527  79.9256 280.2130 14.82169382414712
H-2A R/B                
1 43682U 18084L   26158.60755727  .00021123  00000+0  44816-3 0  9999
2 43682  98.8590  35.4069 0024291  72.4205 287.9690 15.44785924419643
SAOCOM 1B               
1 46265U 20059A   26158.85084387  .00000058  00000+0  13782-4 0  9991
2 46265  97.8890 344.8296 0001480  76.5240 283.6138 14.82162556312107
CSS (TIANHE)            
1 48274U 21035A   26158.82587541  .00021860  00000+0  26156-3 0  9997
2 48274  41.4695  18.9562 0008815   3.9796 356.1111 15.60412503291707
COSMOS 2550             
1 48865U 21056A   26158.82977251  .00006402  00000+0  20076-3 0  9997
2 48865  67.1417 128.2113 0008703 266.2815  93.7344 15.33744130277282
CZ-2C R/B               
1 52794U 22058K   26158.45145853  .00036142  00000+0  41128-3 0  9995
2 52794  50.1841 214.1517 0033049 227.1063 132.7134 15.61206771224127
CZ-2C R/B               
1 54039U 22132E   26158.53405350  .00055680  00000+0  45176-3 0  9997
2 54039  97.2910 165.1354 0017052 113.5419 246.7637 15.70386541204433
GSLV R/B                
1 54149U 22138AN  26158.69402213  .00003113  00000+0  26557-3 0  9993
2 54149  87.3802 136.1727 0021326 176.9002 183.2367 14.97217006197395
XRISM                   
1 57800U 23137A   26158.42315406  .00005292  00000+0  29186-3 0  9999
2 57800  31.0024  62.8447 0007902 227.1437 132.8538 15.12380467151382
ACS3                    
1 59588U 24077B   26158.73010360  .00038072  00000+0  28456-1 0  9992
2 59588  97.1685  79.6301 0049843  68.0697 292.5757 13.93858993106724
CZ-8A R/B               
1 66004U 25231K   26158.47932561 -.00000022  00000+0  50635-4 0  9995
2 66004  50.0042  80.6173 0116480 189.8219 170.0418 14.30152309 33557
SZ-21 MODULE            
1 66515U 25246C   26157.31606433  .00056445  00000+0  36002-3 0  9996
2 66515  41.4728  14.9847 0007184 283.9983  76.0062 15.75457395 32025
